{
  "type": "FeatureCollection",
  "features": [
    {
      "type": "Feature",
      "properties": {
        "norad_id": 40362,
        "name": "YAOGAN-26",
        "group": "resource",
        "lat": -50.00068916227961,
        "lon": 153.24532937247935,
        "alt_km": 460.7770548543658,
        "timestamp": "2025-12-06T20:37:55.716263+00:00",
        "meta_object_name": "YAOGAN-26",
        "meta_object_id": "2014-088A",
        "meta_epoch": "2025-12-06T14:57:09.193248",
        "meta_mean_motion": 15.38980663,
        "meta_eccentricity": 0.00069419,
        "meta_inclination": 97.064,
        "meta_ra_of_asc_node": 341.516,
        "meta_arg_of_pericenter": 46.9873,
        "meta_mean_anomaly": 313.1954,
        "meta_ephemeris_type": 0,
        "meta_classification_type": "U",
        "meta_norad_cat_id": 40362,
        "meta_element_set_no": 999,
        "meta_rev_at_epoch": 60800,
        "meta_bstar": 0.0007561241,
        "meta_mean_motion_dot": 0.00029196,
        "meta_mean_motion_ddot": 0,
        "tle_line1": "1 40362U 14088A   25340.62302307  .00029196  00000+0  75612-3 0  9993",
        "tle_line2": "2 40362  97.0640 341.5160 0006941  46.9873 313.1954 15.38980663608009"
      },
      "geometry": {
        "type": "Point",
        "coordinates": [
          153.24532937247935,
          -50.00068916227961
        ]
      }
    },
    {
      "type": "Feature",
      "properties": {
        "norad_id": 40376,
        "name": "SMAP",
        "group": "resource",
        "lat": -76.39271499926075,
        "lon": 21.859603336244582,
        "alt_km": 690.5838653879828,
        "timestamp": "2025-12-06T20:37:55.716276+00:00",
        "meta_object_name": "SMAP",
        "meta_object_id": "2015-003A",
        "meta_epoch": "2025-12-06T14:25:43.390560",
        "meta_mean_motion": 14.63333147,
        "meta_eccentricity": 0.00012101,
        "meta_inclination": 98.129,
        "meta_ra_of_asc_node": 345.4136,
        "meta_arg_of_pericenter": 87.666,
        "meta_mean_anomaly": 272.468,
        "meta_ephemeris_type": 0,
        "meta_classification_type": "U",
        "meta_norad_cat_id": 40376,
        "meta_element_set_no": 999,
        "meta_rev_at_epoch": 57945,
        "meta_bstar": 0.00022215271,
        "meta_mean_motion_dot": 1.1e-05,
        "meta_mean_motion_ddot": 0,
        "tle_line1": "1 40376U 15003A   25340.60119665  .00001100  00000+0  22215-3 0  9993",
        "tle_line2": "2 40376  98.1290 345.4136 0001210  87.6660 272.4680 14.63333147579458"
      },
      "geometry": {
        "type": "Point",
        "coordinates": [
          21.859603336244582,
          -76.39271499926075
        ]
      }
    },
    {
      "type": "Feature",
      "properties": {
        "norad_id": 40536,
        "name": "KOMPSAT-3A",
        "group": "resource",
        "lat": 70.9051144492721,
        "lon": -68.05490845410873,
        "alt_km": 427.4064079438658,
        "timestamp": "2025-12-06T20:37:55.716287+00:00",
        "meta_object_name": "KOMPSAT-3A",
        "meta_object_id": "2015-014A",
        "meta_epoch": "2025-12-06T14:05:46.138848",
        "meta_mean_motion": 15.43617203,
        "meta_eccentricity": 0.00042333,
        "meta_inclination": 97.6784,
        "meta_ra_of_asc_node": 314.5956,
        "meta_arg_of_pericenter": 139.9065,
        "meta_mean_anomaly": 220.2495,
        "meta_ephemeris_type": 0,
        "meta_classification_type": "U",
        "meta_norad_cat_id": 40536,
        "meta_element_set_no": 999,
        "meta_rev_at_epoch": 59200,
        "meta_bstar": 0.00066692966,
        "meta_mean_motion_dot": 0.0003,
        "meta_mean_motion_ddot": 0,
        "tle_line1": "1 40536U 15014A   25340.58733957  .00030000  00000+0  66693-3 0  9995",
        "tle_line2": "2 40536  97.6784 314.5956 0004233 139.9065 220.2495 15.43617203592001"
      },
      "geometry": {
        "type": "Point",
        "coordinates": [
          -68.05490845410873,
          70.9051144492721
        ]
      }
    },
    {
      "type": "Feature",
      "properties": {
        "norad_id": 40697,
        "name": "SENTINEL-2A",
        "group": "resource",
        "lat": 62.16525235758731,
        "lon": -109.92936363434423,
        "alt_km": 782.2137600589422,
        "timestamp": "2025-12-06T20:37:55.716299+00:00",
        "meta_object_name": "SENTINEL-2A",
        "meta_object_id": "2015-028A",
        "meta_epoch": "2025-12-06T15:03:16.377696",
        "meta_mean_motion": 14.30823801,
        "meta_eccentricity": 0.00010341,
        "meta_inclination": 98.5701,
        "meta_ra_of_asc_node": 53.2471,
        "meta_arg_of_pericenter": 94.4458,
        "meta_mean_anomaly": 265.6843,
        "meta_ephemeris_type": 0,
        "meta_classification_type": "U",
        "meta_norad_cat_id": 40697,
        "meta_element_set_no": 999,
        "meta_rev_at_epoch": 54619,
        "meta_bstar": 0.00014422107,
        "meta_mean_motion_dot": 3.34e-06,
        "meta_mean_motion_ddot": 0,
        "tle_line1": "1 40697U 15028A   25340.62727289  .00000334  00000+0  14422-3 0  9994",
        "tle_line2": "2 40697  98.5701  53.2471 0001034  94.4458 265.6843 14.30823801546191"
      },
      "geometry": {
        "type": "Point",
        "coordinates": [
          -109.92936363434423,
          62.16525235758731
        ]
      }
    },
    {
      "type": "Feature",
      "properties": {
        "norad_id": 40701,
        "name": "GAOFEN-8",
        "group": "resource",
        "lat": 48.92602916567448,
        "lon": 149.79506991855698,
        "alt_km": 449.4194270417265,
        "timestamp": "2025-12-06T20:37:55.716309+00:00",
        "meta_object_name": "GAOFEN-8",
        "meta_object_id": "2015-030A",
        "meta_epoch": "2025-12-06T14:10:20.506368",
        "meta_mean_motion": 15.38243431,
        "meta_eccentricity": 0.00113143,
        "meta_inclination": 97.6908,
        "meta_ra_of_asc_node": 158.4329,
        "meta_arg_of_pericenter": 159.6719,
        "meta_mean_anomaly": 200.4978,
        "meta_ephemeris_type": 0,
        "meta_classification_type": "U",
        "meta_norad_cat_id": 40701,
        "meta_element_set_no": 999,
        "meta_rev_at_epoch": 58176,
        "meta_bstar": 0.00078234315,
        "meta_mean_motion_dot": 0.00029528,
        "meta_mean_motion_ddot": 0,
        "tle_line1": "1 40701U 15030A   25340.59051512  .00029528  00000+0  78234-3 0  9995",
        "tle_line2": "2 40701  97.6908 158.4329 0011314 159.6719 200.4978 15.38243431581764"
      },
      "geometry": {
        "type": "Point",
        "coordinates": [
          149.79506991855698,
          48.92602916567448
        ]
      }
    },
    {
      "type": "Feature",
      "properties": {
        "norad_id": 40718,
        "name": "CARBONITE 1 (CBNT-1)",
        "group": "resource",
        "lat": 75.65531270266646,
        "lon": 130.5013724256061,
        "alt_km": 619.0162474244744,
        "timestamp": "2025-12-06T20:37:55.716320+00:00",
        "meta_object_name": "CARBONITE 1 (CBNT-1)",
        "meta_object_id": "2015-032D",
        "meta_epoch": "2025-12-06T13:48:10.492416",
        "meta_mean_motion": 14.82699456,
        "meta_eccentricity": 0.00140063,
        "meta_inclination": 97.6401,
        "meta_ra_of_asc_node": 161.891,
        "meta_arg_of_pericenter": 202.0691,
        "meta_mean_anomaly": 157.9922,
        "meta_ephemeris_type": 0,
        "meta_classification_type": "U",
        "meta_norad_cat_id": 40718,
        "meta_element_set_no": 999,
        "meta_rev_at_epoch": 56079,
        "meta_bstar": 0.00054240192,
        "meta_mean_motion_dot": 4.334e-05,
        "meta_mean_motion_ddot": 0,
        "tle_line1": "1 40718U 15032D   25340.57512144  .00004334  00000+0  54240-3 0  9995",
        "tle_line2": "2 40718  97.6401 161.8910 0014006 202.0691 157.9922 14.82699456560792"
      },
      "geometry": {
        "type": "Point",
        "coordinates": [
          130.5013724256061,
          75.65531270266646
        ]
      }
    },
    {
      "type": "Feature",
      "properties": {
        "norad_id": 40878,
        "name": "YAOGAN-27",
        "group": "resource",
        "lat": 57.084435657985104,
        "lon": -45.23746749660388,
        "alt_km": 1196.8782122423745,
        "timestamp": "2025-12-06T20:37:55.716332+00:00",
        "meta_object_name": "YAOGAN-27",
        "meta_object_id": "2015-040A",
        "meta_epoch": "2025-12-06T14:51:44.628192",
        "meta_mean_motion": 13.16059963,
        "meta_eccentricity": 0.00076872,
        "meta_inclination": 100.1007,
        "meta_ra_of_asc_node": 330.5163,
        "meta_arg_of_pericenter": 301.7897,
        "meta_mean_anomaly": 58.2468,
        "meta_ephemeris_type": 0,
        "meta_classification_type": "U",
        "meta_norad_cat_id": 40878,
        "meta_element_set_no": 999,
        "meta_rev_at_epoch": 49233,
        "meta_bstar": 0.00014322329,
        "meta_mean_motion_dot": 1.2e-07,
        "meta_mean_motion_ddot": 0,
        "tle_line1": "1 40878U 15040A   25340.61926653  .00000012  00000+0  14322-3 0  9996",
        "tle_line2": "2 40878 100.1007 330.5163 0007687 301.7897  58.2468 13.16059963492339"
      },
      "geometry": {
        "type": "Point",
        "coordinates": [
          -45.23746749660388,
          57.084435657985104
        ]
      }
    }
  ]
}